STARLINK-35291          
1 66083U 25235AB  25318.32471514  .00141266  00000+0  25020-2 0  9996
2 66083  53.1594  62.8865 0001128 110.7925 249.3205 15.49312816  5206
STARLINK-35379          
1 66084U 25235AC  25318.32437042  .00137829  00000+0  24385-2 0  9998
2 66084  53.1596  62.8845 0000990 100.3673 259.7447 15.49358993  5230
STARLINK-35370          
1 66085U 25235AD  25317.87247036  .00136704  00000+0  24226-2 0  9995
2 66085  53.1596  65.0397 0001170 130.4864 229.6247 15.49315975  5131
STARLINK-35596          
1 66086U 25236A   25318.25002315 -.02353100  00000+0 -45184-1 0  9999
2 66086  53.1593 282.0284 0001117  90.9593 243.5949 15.51224948  5298
STARLINK-35563          
1 66087U 25236B   25318.25002315 -.02435836  00000+0 -45937-1 0  9993
2 66087  53.1594 282.0243 0001223 102.9018 233.5673 15.51245873  5236
STARLINK-35461          
1 66088U 25236C   25318.25002315 -.02558217  00000+0 -48444-1 0  9999
2 66088  53.1593 282.0173 0001120  74.7434 265.5614 15.51306214  5239
STARLINK-35571          
1 66089U 25236D   25318.25002315 -.02371133  00000+0 -45561-1 0  9997
2 66089  53.1593 282.0207 0001299 106.3079 232.0777 15.51235244  5291
STARLINK-35570          
1 66090U 25236E   25318.25002315 -.02558125  00000+0 -48442-1 0  9998
2 66090  53.1593 282.0137 0001101  75.6248 266.5960 15.51306395  5295
STARLINK-35532          
1 66091U 25236F   25318.25002315 -.02521807  00000+0 -47696-1 0  9996
2 66091  53.1594 282.0094 0001161  73.8316 270.3048 15.51288069  5298
STARLINK-35527          
1 66092U 25236G   25318.25002315 -.02422984  00000+0 -45679-1 0  9992
2 66092  53.1595 282.0044 0001139  90.8390 255.2160 15.51238503  5296
STARLINK-35500          
1 66093U 25236H   25318.25002315 -.02425027  00000+0 -45716-1 0  9996
2 66093  53.1596 282.0007 0001178  93.4511 254.5176 15.51241607  5292
STARLINK-35528          
1 66094U 25236J   25318.25002315 -.02431332  00000+0 -45846-1 0  9997
2 66094  53.1597 281.9968 0001151  89.4005 260.4869 15.51244059  5291
