CCSDS_OMM_VERS = 2.0
CREATION_DATE  = 
ORIGINATOR     = 

OBJECT_NAME    = STARLINK-35291
OBJECT_ID      = 2025-235AB
CENTER_NAME    = EARTH
REF_FRAME      = TEME
TIME_SYSTEM    = UTC
MEAN_ELEMENT_THEORY = SGP/SGP4

EPOCH          = 2025-11-14T07:47:35.388096
MEAN_MOTION    = 15.49312816
ECCENTRICITY   = .00011284
INCLINATION    = 53.1594
RA_OF_ASC_NODE = 62.8865
ARG_OF_PERICENTER = 110.7925
MEAN_ANOMALY   = 249.3205

EPHEMERIS_TYPE = 0
CLASSIFICATION_TYPE = U
NORAD_CAT_ID   = 66083
ELEMENT_SET_NO = 999
REV_AT_EPOCH   = 520
BSTAR          = .25020125E-2
MEAN_MOTION_DOT = .141266E-2
MEAN_MOTION_DDOT = 0

CCSDS_OMM_VERS = 2.0
CREATION_DATE  = 
ORIGINATOR     = 

OBJECT_NAME    = STARLINK-35379
OBJECT_ID      = 2025-235AC
CENTER_NAME    = EARTH
REF_FRAME      = TEME
TIME_SYSTEM    = UTC
MEAN_ELEMENT_THEORY = SGP/SGP4

EPOCH          = 2025-11-14T07:47:05.604288
MEAN_MOTION    = 15.49358993
ECCENTRICITY   = .00009903
INCLINATION    = 53.1596
RA_OF_ASC_NODE = 62.8845
ARG_OF_PERICENTER = 100.3673
MEAN_ANOMALY   = 259.7447

EPHEMERIS_TYPE = 0
CLASSIFICATION_TYPE = U
NORAD_CAT_ID   = 66084
ELEMENT_SET_NO = 999
REV_AT_EPOCH   = 523
BSTAR          = .24384633E-2
MEAN_MOTION_DOT = .137829E-2
MEAN_MOTION_DDOT = 0

CCSDS_OMM_VERS = 2.0
CREATION_DATE  = 
ORIGINATOR     = 

OBJECT_NAME    = STARLINK-35370
OBJECT_ID      = 2025-235AD
CENTER_NAME    = EARTH
REF_FRAME      = TEME
TIME_SYSTEM    = UTC
MEAN_ELEMENT_THEORY = SGP/SGP4

EPOCH          = 2025-11-13T20:56:21.439104
MEAN_MOTION    = 15.49315975
ECCENTRICITY   = .00011705
INCLINATION    = 53.1596
RA_OF_ASC_NODE = 65.0397
ARG_OF_PERICENTER = 130.4864
MEAN_ANOMALY   = 229.6247

EPHEMERIS_TYPE = 0
CLASSIFICATION_TYPE = U
NORAD_CAT_ID   = 66085
ELEMENT_SET_NO = 999
REV_AT_EPOCH   = 513
BSTAR          = .24226204E-2
MEAN_MOTION_DOT = .136704E-2
MEAN_MOTION_DDOT = 0

CCSDS_OMM_VERS = 2.0
CREATION_DATE  = 
ORIGINATOR     = 

OBJECT_NAME    = STARLINK-35596
OBJECT_ID      = 2025-236A
CENTER_NAME    = EARTH
REF_FRAME      = TEME
TIME_SYSTEM    = UTC
MEAN_ELEMENT_THEORY = SGP/SGP4

EPOCH          = 2025-11-14T06:00:02.000160
MEAN_MOTION    = 15.51224948
ECCENTRICITY   = .00011173
INCLINATION    = 53.1593
RA_OF_ASC_NODE = 282.0284
ARG_OF_PERICENTER = 90.9593
MEAN_ANOMALY   = 243.5949

EPHEMERIS_TYPE = 0
CLASSIFICATION_TYPE = U
NORAD_CAT_ID   = 66086
ELEMENT_SET_NO = 999
REV_AT_EPOCH   = 529
BSTAR          = -.45183674E-1
MEAN_MOTION_DOT = -.23531E-1
MEAN_MOTION_DDOT = 0

CCSDS_OMM_VERS = 2.0
CREATION_DATE  = 
ORIGINATOR     = 

OBJECT_NAME    = STARLINK-35563
OBJECT_ID      = 2025-236B
CENTER_NAME    = EARTH
REF_FRAME      = TEME
TIME_SYSTEM    = UTC
MEAN_ELEMENT_THEORY = SGP/SGP4

EPOCH          = 2025-11-14T06:00:02.000160
MEAN_MOTION    = 15.51245873
ECCENTRICITY   = .00012237
INCLINATION    = 53.1594
RA_OF_ASC_NODE = 282.0243
ARG_OF_PERICENTER = 102.9018
MEAN_ANOMALY   = 233.5673

EPHEMERIS_TYPE = 0
CLASSIFICATION_TYPE = U
NORAD_CAT_ID   = 66087
ELEMENT_SET_NO = 999
REV_AT_EPOCH   = 523
BSTAR          = -.4593746E-1
MEAN_MOTION_DOT = -.2435836E-1
MEAN_MOTION_DDOT = 0

CCSDS_OMM_VERS = 2.0
CREATION_DATE  = 
ORIGINATOR     = 

OBJECT_NAME    = STARLINK-35461
OBJECT_ID      = 2025-236C
CENTER_NAME    = EARTH
REF_FRAME      = TEME
TIME_SYSTEM    = UTC
MEAN_ELEMENT_THEORY = SGP/SGP4

EPOCH          = 2025-11-14T06:00:02.000160
MEAN_MOTION    = 15.51306214
ECCENTRICITY   = .00011207
INCLINATION    = 53.1593
RA_OF_ASC_NODE = 282.0173
ARG_OF_PERICENTER = 74.7434
MEAN_ANOMALY   = 265.5614

EPHEMERIS_TYPE = 0
CLASSIFICATION_TYPE = U
NORAD_CAT_ID   = 66088
ELEMENT_SET_NO = 999
REV_AT_EPOCH   = 523
BSTAR          = -.48443945E-1
MEAN_MOTION_DOT = -.2558217E-1
MEAN_MOTION_DDOT = 0

CCSDS_OMM_VERS = 2.0
CREATION_DATE  = 
ORIGINATOR     = 

OBJECT_NAME    = STARLINK-35571
OBJECT_ID      = 2025-236D
CENTER_NAME    = EARTH
REF_FRAME      = TEME
TIME_SYSTEM    = UTC
MEAN_ELEMENT_THEORY = SGP/SGP4

EPOCH          = 2025-11-14T06:00:02.000160
MEAN_MOTION    = 15.51235244
ECCENTRICITY   = .00012992
INCLINATION    = 53.1593
RA_OF_ASC_NODE = 282.0207
ARG_OF_PERICENTER = 106.3079
MEAN_ANOMALY   = 232.0777

EPHEMERIS_TYPE = 0
CLASSIFICATION_TYPE = U
NORAD_CAT_ID   = 66089
ELEMENT_SET_NO = 999
REV_AT_EPOCH   = 529
BSTAR          = -.45561125E-1
MEAN_MOTION_DOT = -.2371133E-1
MEAN_MOTION_DDOT = 0

CCSDS_OMM_VERS = 2.0
CREATION_DATE  = 
ORIGINATOR     = 

OBJECT_NAME    = STARLINK-35570
OBJECT_ID      = 2025-236E
CENTER_NAME    = EARTH
REF_FRAME      = TEME
TIME_SYSTEM    = UTC
MEAN_ELEMENT_THEORY = SGP/SGP4

EPOCH          = 2025-11-14T06:00:02.000160
MEAN_MOTION    = 15.51306395
ECCENTRICITY   = .00011012
INCLINATION    = 53.1593
RA_OF_ASC_NODE = 282.0137
ARG_OF_PERICENTER = 75.6248
MEAN_ANOMALY   = 266.5960

EPHEMERIS_TYPE = 0
CLASSIFICATION_TYPE = U
NORAD_CAT_ID   = 66090
ELEMENT_SET_NO = 999
REV_AT_EPOCH   = 529
BSTAR          = -.48441991E-1
MEAN_MOTION_DOT = -.2558125E-1
MEAN_MOTION_DDOT = 0

CCSDS_OMM_VERS = 2.0
CREATION_DATE  = 
ORIGINATOR     = 

OBJECT_NAME    = STARLINK-35532
OBJECT_ID      = 2025-236F
CENTER_NAME    = EARTH
REF_FRAME      = TEME
TIME_SYSTEM    = UTC
MEAN_ELEMENT_THEORY = SGP/SGP4

EPOCH          = 2025-11-14T06:00:02.000160
MEAN_MOTION    = 15.51288069
ECCENTRICITY   = .00011611
INCLINATION    = 53.1594
RA_OF_ASC_NODE = 282.0094
ARG_OF_PERICENTER = 73.8316
MEAN_ANOMALY   = 270.3048

EPHEMERIS_TYPE = 0
CLASSIFICATION_TYPE = U
NORAD_CAT_ID   = 66091
ELEMENT_SET_NO = 999
REV_AT_EPOCH   = 529
BSTAR          = -.47695869E-1
MEAN_MOTION_DOT = -.2521807E-1
MEAN_MOTION_DDOT = 0

CCSDS_OMM_VERS = 2.0
CREATION_DATE  = 
ORIGINATOR     = 

OBJECT_NAME    = STARLINK-35527
OBJECT_ID      = 2025-236G
CENTER_NAME    = EARTH
REF_FRAME      = TEME
TIME_SYSTEM    = UTC
MEAN_ELEMENT_THEORY = SGP/SGP4

EPOCH          = 2025-11-14T06:00:02.000160
MEAN_MOTION    = 15.51238503
ECCENTRICITY   = .00011395
INCLINATION    = 53.1595
RA_OF_ASC_NODE = 282.0044
ARG_OF_PERICENTER = 90.8390
MEAN_ANOMALY   = 255.2160

EPHEMERIS_TYPE = 0
CLASSIFICATION_TYPE = U
NORAD_CAT_ID   = 66092
ELEMENT_SET_NO = 999
REV_AT_EPOCH   = 529
BSTAR          = -.45678721E-1
MEAN_MOTION_DOT = -.2422984E-1
MEAN_MOTION_DDOT = 0

CCSDS_OMM_VERS = 2.0
CREATION_DATE  = 
ORIGINATOR     = 

OBJECT_NAME    = STARLINK-35500
OBJECT_ID      = 2025-236H
CENTER_NAME    = EARTH
REF_FRAME      = TEME
TIME_SYSTEM    = UTC
MEAN_ELEMENT_THEORY = SGP/SGP4

EPOCH          = 2025-11-14T06:00:02.000160
MEAN_MOTION    = 15.51241607
ECCENTRICITY   = .00011783
INCLINATION    = 53.1596
RA_OF_ASC_NODE = 282.0007
ARG_OF_PERICENTER = 93.4511
MEAN_ANOMALY   = 254.5176

EPHEMERIS_TYPE = 0
CLASSIFICATION_TYPE = U
NORAD_CAT_ID   = 66093
ELEMENT_SET_NO = 999
REV_AT_EPOCH   = 529
BSTAR          = -.45716293E-1
MEAN_MOTION_DOT = -.2425027E-1
MEAN_MOTION_DDOT = 0

CCSDS_OMM_VERS = 2.0
CREATION_DATE  = 
ORIGINATOR     = 

OBJECT_NAME    = STARLINK-35528
OBJECT_ID      = 2025-236J
CENTER_NAME    = EARTH
REF_FRAME      = TEME
TIME_SYSTEM    = UTC
MEAN_ELEMENT_THEORY = SGP/SGP4

EPOCH          = 2025-11-14T06:00:02.000160
MEAN_MOTION    = 15.51244059
ECCENTRICITY   = .00011513
INCLINATION    = 53.1597
RA_OF_ASC_NODE = 281.9968
ARG_OF_PERICENTER = 89.4005
MEAN_ANOMALY   = 260.4869

EPHEMERIS_TYPE = 0
CLASSIFICATION_TYPE = U
NORAD_CAT_ID   = 66094
ELEMENT_SET_NO = 999
REV_AT_EPOCH   = 529
BSTAR          = -.45846139E-1
MEAN_MOTION_DOT = -.2431332E-1
MEAN_MOTION_DDOT = 0

